[{"OBJECT_NAME":"LYNK TOWER 5","OBJECT_ID":"2024-043Z","EPOCH":"2026-03-09T22:11:51.175104","MEAN_MOTION":15.29454506,"ECCENTRICITY":0.00104056,"INCLINATION":97.5458,"RA_OF_ASC_NODE":204.7305,"ARG_OF_PERICENTER":234.6422,"MEAN_ANOMALY":125.3846,"EPHEMERIS_TYPE":0,"CLASSIFICATION_TYPE":"U","NORAD_CAT_ID":59121,"ELEMENT_SET_NO":999,"REV_AT_EPOCH":11186,"BSTAR":0.00031901545,"MEAN_MOTION_DOT":9.048e-5,"MEAN_MOTION_DDOT":0},{"OBJECT_NAME":"STARLINK-31828","OBJECT_ID":"2024-091Q","EPOCH":"2026-03-09T07:11:00.014208","MEAN_MOTION":15.30193858,"ECCENTRICITY":0.00011321,"INCLINATION":53.1616,"RA_OF_ASC_NODE":28.7656,"ARG_OF_PERICENTER":92.1509,"MEAN_ANOMALY":267.9622,"EPHEMERIS_TYPE":0,"CLASSIFICATION_TYPE":"U","NORAD_CAT_ID":59767,"ELEMENT_SET_NO":999,"REV_AT_EPOCH":10294,"BSTAR":-6.845739e-6,"MEAN_MOTION_DOT":-5.62e-6,"MEAN_MOTION_DDOT":0}]
